{
    "links": {
        "self": "http://www.neowsapp.com/rest/v1/neo/3694985?api_key=iIulBulltgU6a56xZRHN4H3l9WmuAYTsLGpBGhQ2"
    },
    "id": "3694985",
    "neo_reference_id": "3694985",
    "name": "(2014 UT116)",
    "designation": "2014 UT116",
    "nasa_jpl_url": "http://ssd.jpl.nasa.gov/sbdb.cgi?sstr=3694985",
    "absolute_magnitude_h": 21.3,
    "estimated_diameter": {
        "kilometers": {
            "estimated_diameter_min": 0.1460679643,
            "estimated_diameter_max": 0.3266178974
        },
        "meters": {
            "estimated_diameter_min": 146.0679642714,
            "estimated_diameter_max": 326.6178974458
        },
        "miles": {
            "estimated_diameter_min": 0.090762397,
            "estimated_diameter_max": 0.2029508896
        },
        "feet": {
            "estimated_diameter_min": 479.2256199,
            "estimated_diameter_max": 1071.581062656
        }
    },
    "is_potentially_hazardous_asteroid": false,
    "close_approach_data": [
        {
            "close_approach_date": "2014-05-07",
            "close_approach_date_full": "2014-May-07 11:30",
            "epoch_date_close_approach": 1399462200000,
            "relative_velocity": {
                "kilometers_per_second": "16.2310720915",
                "kilometers_per_hour": "58431.8595293284",
                "miles_per_hour": "36307.2851614318"
            },
            "miss_distance": {
                "astronomical": "0.3662164503",
                "lunar": "142.4581991667",
                "kilometers": "54785200.923840861",
                "miles": "34041945.3080954418"
            },
            "orbiting_body": "Earth"
        },
        {
            "close_approach_date": "2014-09-29",
            "close_approach_date_full": "2014-Sep-29 15:02",
            "epoch_date_close_approach": 1412002920000,
            "relative_velocity": {
                "kilometers_per_second": "15.0333239174",
                "kilometers_per_hour": "54119.9661026742",
                "miles_per_hour": "33628.0422708533"
            },
            "miss_distance": {
                "astronomical": "0.2884419578",
                "lunar": "112.2039215842",
                "kilometers": "43150302.505509886",
                "miles": "26812354.6715169868"
            },
            "orbiting_body": "Earth"
        }
    ],
    "orbital_data": {
        "orbit_id": "3",
        "orbit_determination_date": "2017-04-06 08:37:46",
        "first_observation_date": "2014-10-25",
        "last_observation_date": "2014-10-29",
        "data_arc_in_days": 4,
        "observations_used": 18,
        "orbit_uncertainty": "9",
        "minimum_orbit_intersection": ".256547",
        "jupiter_tisserand_invariant": "4.100",
        "epoch_osculation": "2456956.5",
        "eccentricity": ".3691564397368103",
        "semi_major_axis": "1.636202708329827",
        "inclination": "28.07960428874085",
        "ascending_node_longitude": "201.3637125988479",
        "orbital_period": "764.458805797742",
        "perihelion_distance": "1.032187941835061",
        "perihelion_argument": "100.2795100158938",
        "aphelion_distance": "2.240217474824592",
        "perihelion_time": "2456858.173214997258",
        "mean_anomaly": "46.30418582731652",
        "mean_motion": ".4709213855209978",
        "equinox": "J2000",
        "orbit_class": {
            "orbit_class_type": "AMO",
            "orbit_class_description": "Near-Earth asteroid orbits similar to that of 1221 Amor",
            "orbit_class_range": "1.017 AU < q (perihelion) < 1.3 AU"
        }
    },
    "is_sentry_object": false
}